{"type": "FeatureCollection", "features": [ {"type": "Feature", "properties": {"norad_id": 38143, "name": "FENGYUN 1C DEB", "group": "fengyun-1c-debris", "lat": 55.94738237135369, "lon": -117.61005909561864, "alt_km": 864.5845899552951, "timestamp": "2025-12-18T21:31:51.291272+00:00", "meta": {"OBJECT_NAME": "FENGYUN 1C DEB", "OBJECT_ID": "1999-025EQQ", "EPOCH": "2025-12-17T09:02:58.047936", "MEAN_MOTION": 14.0490641, "ECCENTRICITY": 0.00563343, "INCLINATION": 99.0304, "RA_OF_ASC_NODE": 47.2681, "ARG_OF_PERICENTER": 207.7954, "MEAN_ANOMALY": 152.0199, "EPHEMERIS_TYPE": 0, "CLASSIFICATION_TYPE": "U", "NORAD_CAT_ID": 38143, "ELEMENT_SET_NO": 999, "REV_AT_EPOCH": 60348, "BSTAR": 0.00075665918, "MEAN_MOTION_DOT": 1.189e-05, "MEAN_MOTION_DDOT": 0}, "tle": {"line1": "1 38143U 99025EQQ 25351.37706074  .00001189  00000+0  75666-3 0  9995", "line2": "2 38143  99.0304  47.2681 0056334 207.7954 152.0199 14.04906410603486"}}, "geometry": {"type": "Point", "coordinates": [-117.61005909561864, 55.94738237135369]}}, {"type": "Feature", "properties": {"norad_id": 38144, "name": "FENGYUN 1C DEB", "group": "fengyun-1c-debris", "lat": -6.7610714003241075, "lon": -4.228055228083269, "alt_km": 831.1698182786758, "timestamp": "2025-12-18T21:31:51.291282+00:00", "meta": {"OBJECT_NAME": "FENGYUN 1C DEB", "OBJECT_ID": "1999-025EQR", "EPOCH": "2025-12-12T07:21:41.538528", "MEAN_MOTION": 13.59024242, "ECCENTRICITY": 0.02903277, "INCLINATION": 98.9688, "RA_OF_ASC_NODE": 170.8072, "ARG_OF_PERICENTER": 192.7812, "MEAN_ANOMALY": 166.5857, "EPHEMERIS_TYPE": 0, "CLASSIFICATION_TYPE": "U", "NORAD_CAT_ID": 38144, "ELEMENT_SET_NO": 999, "REV_AT_EPOCH": 61031, "BSTAR": 0.0024533733, "MEAN_MOTION_DOT": 2.337e-05, "MEAN_MOTION_DDOT": 0}, "tle": {"line1": "1 38144U 99025EQR 25346.30673077  .00002337  00000+0  24534-2 0  9992", "line2": "2 38144  98.9688 170.8072 0290327 192.7812 166.5857 13.59024242610319"}}, "geometry": {"type": "Point", "coordinates": [-4.228055228083269, -6.7610714003241075]}}, {"type": "Feature", "properties": {"norad_id": 38146, "name": "FENGYUN 1C DEB", "group": "fengyun-1c-debris", "lat": 8.228205294493991, "lon": -104.3294835272627, "alt_km": 686.8560154625984, "timestamp": "2025-12-18T21:31:51.291292+00:00", "meta": {"OBJECT_NAME": "FENGYUN 1C DEB", "OBJECT_ID": "1999-025EQT", "EPOCH": "2025-12-18T00:08:51.919008", "MEAN_MOTION": 14.59286747, "ECCENTRICITY": 0.02022294, "INCLINATION": 99.4834, "RA_OF_ASC_NODE": 73.268, "ARG_OF_PERICENTER": 87.2264, "MEAN_ANOMALY": 84.0387, "EPHEMERIS_TYPE": 0, "CLASSIFICATION_TYPE": "U", "NORAD_CAT_ID": 38146, "ELEMENT_SET_NO": 999, "REV_AT_EPOCH": 31956, "BSTAR": 0.00063226228, "MEAN_MOTION_DOT": 3.907e-05, "MEAN_MOTION_DDOT": 0}, "tle": {"line1": "1 38146U 99025EQT 25352.00615647  .00003907  00000+0  63226-3 0  9993", "line2": "2 38146  99.4834  73.2680 0202229  87.2264  84.0387 14.59286747319560"}}, "geometry": {"type": "Point", "coordinates": [-104.3294835272627, 8.228205294493991]}}, {"type": "Feature", "properties": {"norad_id": 38147, "name": "FENGYUN 1C DEB", "group": "fengyun-1c-debris", "lat": -78.33177328057462, "lon": 140.13432361056465, "alt_km": 787.4130475105012, "timestamp": "2025-12-18T21:31:51.291302+00:00", "meta": {"OBJECT_NAME": "FENGYUN 1C DEB", "OBJECT_ID": "1999-025EQU", "EPOCH": "2025-12-16T19:22:38.483904", "MEAN_MOTION": 14.23455891, "ECCENTRICITY": 0.00496768, "INCLINATION": 98.5582, "RA_OF_ASC_NODE": 4.9202, "ARG_OF_PERICENTER": 288.1797, "MEAN_ANOMALY": 71.3977, "EPHEMERIS_TYPE": 0, "CLASSIFICATION_TYPE": "U", "NORAD_CAT_ID": 38147, "ELEMENT_SET_NO": 999, "REV_AT_EPOCH": 60445, "BSTAR": 0.00050376812, "MEAN_MOTION_DOT": 1.116e-05, "MEAN_MOTION_DDOT": 0}, "tle": {"line1": "1 38147U 99025EQU 25350.80738986  .00001116  00000+0  50377-3 0  9995", "line2": "2 38147  98.5582   4.9202 0049676 288.1797  71.3977 14.23455891604458"}}, "geometry": {"type": "Point", "coordinates": [140.13432361056465, -78.33177328057462]}}, {"type": "Feature", "properties": {"norad_id": 38149, "name": "FENGYUN 1C DEB", "group": "fengyun-1c-debris", "lat": 78.43971498689034, "lon": -149.21403475217514, "alt_km": 758.4395957505303, "timestamp": "2025-12-18T21:31:51.291312+00:00", "meta": {"OBJECT_NAME": "FENGYUN 1C DEB", "OBJECT_ID": "1999-025EQW", "EPOCH": "2025-12-07T17:18:01.960128", "MEAN_MOTION": 14.25910713, "ECCENTRICITY": 0.00777044, "INCLINATION": 98.3566, "RA_OF_ASC_NODE": 334.1881, "ARG_OF_PERICENTER": 175.9559, "MEAN_ANOMALY": 184.2267, "EPHEMERIS_TYPE": 0, "CLASSIFICATION_TYPE": "U", "NORAD_CAT_ID": 38149, "ELEMENT_SET_NO": 999, "REV_AT_EPOCH": 70416, "BSTAR": 0.00036135678, "MEAN_MOTION_DOT": 8.47e-06, "MEAN_MOTION_DDOT": 0}, "tle": {"line1": "1 38149U 99025EQW 25341.72085602  .00000847  00000+0  36136-3 0  9995", "line2": "2 38149  98.3566 334.1881 0077704 175.9559 184.2267 14.25910713704169"}}, "geometry": {"type": "Point", "coordinates": [-149.21403475217514, 78.43971498689034]}}, {"type": "Feature", "properties": {"norad_id": 38155, "name": "FENGYUN 1C DEB", "group": "fengyun-1c-debris", "lat": 16.55225528484166, "lon": -105.51249409250809, "alt_km": 810.680227843317, "timestamp": "2025-12-18T21:31:51.291322+00:00", "meta": {"OBJECT_NAME": "FENGYUN 1C DEB", "OBJECT_ID": "1999-025ERC", "EPOCH": "2025-12-09T23:26:42.825120", "MEAN_MOTION": 14.2501054, "ECCENTRICITY": 0.00946971, "INCLINATION": 98.4476, "RA_OF_ASC_NODE": 248.4308, "ARG_OF_PERICENTER": 135.2408, "MEAN_ANOMALY": 225.6463, "EPHEMERIS_TYPE": 0, "CLASSIFICATION_TYPE": "U", "NORAD_CAT_ID": 38155, "ELEMENT_SET_NO": 999, "REV_AT_EPOCH": 63736, "BSTAR": 0.0028448127, "MEAN_MOTION_DOT": 6.943e-05, "MEAN_MOTION_DDOT": 0}, "tle": {"line1": "1 38155U 99025ERC 25343.97688455  .00006943  00000+0  28448-2 0  9995", "line2": "2 38155  98.4476 248.4308 0094697 135.2408 225.6463 14.25010540637364"}}, "geometry": {"type": "Point", "coordinates": [-105.51249409250809, 16.55225528484166]}}, {"type": "Feature", "properties": {"norad_id": 38157, "name": "FENGYUN 1C DEB", "group": "fengyun-1c-debris", "lat": -7.369404377707679, "lon": -98.29674449169565, "alt_km": 867.3490094151257, "timestamp": "2025-12-18T21:31:51.291332+00:00", "meta": {"OBJECT_NAME": "FENGYUN 1C DEB", "OBJECT_ID": "1999-025ERE", "EPOCH": "2025-12-18T04:40:35.296608", "MEAN_MOTION": 14.21756904, "ECCENTRICITY": 0.02742322, "INCLINATION": 99.6569, "RA_OF_ASC_NODE": 259.6725, "ARG_OF_PERICENTER": 99.0599, "MEAN_ANOMALY": 264.1712, "EPHEMERIS_TYPE": 0, "CLASSIFICATION_TYPE": "U", "NORAD_CAT_ID": 38157, "ELEMENT_SET_NO": 999, "REV_AT_EPOCH": 76325, "BSTAR": 0.00051588574, "MEAN_MOTION_DOT": 1.607e-05, "MEAN_MOTION_DDOT": 0}, "tle": {"line1": "1 38157U 99025ERE 25352.19485297  .00001607  00000+0  51589-3 0  9995", "line2": "2 38157  99.6569 259.6725 0274232  99.0599 264.1712 14.21756904763252"}}, "geometry": {"type": "Point", "coordinates": [-98.29674449169565, -7.369404377707679]}}, {"type": "Feature", "properties": {"norad_id": 38159, "name": "FENGYUN 1C DEB", "group": "fengyun-1c-debris", "lat": 19.358567697066324, "lon": -118.60853908020222, "alt_km": 858.3570068510344, "timestamp": "2025-12-18T21:31:51.291342+00:00", "meta": {"OBJECT_NAME": "FENGYUN 1C DEB", "OBJECT_ID": "1999-025ERG", "EPOCH": "2025-12-04T22:05:20.152032", "MEAN_MOTION": 14.03448484, "ECCENTRICITY": 0.005704, "INCLINATION": 99.3156, "RA_OF_ASC_NODE": 230.39, "ARG_OF_PERICENTER": 2.347, "MEAN_ANOMALY": 357.7952, "EPHEMERIS_TYPE": 0, "CLASSIFICATION_TYPE": "U", "NORAD_CAT_ID": 38159, "ELEMENT_SET_NO": 999, "REV_AT_EPOCH": 83002, "BSTAR": 0.0010527, "MEAN_MOTION_DOT": 1.625e-05, "MEAN_MOTION_DDOT": 0}, "tle": {"line1": "1 38159U 99025ERG 25338.92037213  .00001625  00000+0  10527-2 0  9999", "line2": "2 38159  99.3156 230.3900 0057040   2.3470 357.7952 14.03448484830021"}}, "geometry": {"type": "Point", "coordinates": [-118.60853908020222, 19.358567697066324]}}, {"type": "Feature", "properties": {"norad_id": 38163, "name": "FENGYUN 1C DEB", "group": "fengyun-1c-debris", "lat": -5.649392945132074, "lon": 30.384495431390388, "alt_km": 911.595959567222, "timestamp": "2025-12-18T21:31:51.291352+00:00", "meta": {"OBJECT_NAME": "FENGYUN 1C DEB", "OBJECT_ID": "1999-025ERL", "EPOCH": "2025-12-17T21:38:46.665600", "MEAN_MOTION": 14.05928635, "ECCENTRICITY": 0.00762002, "INCLINATION": 99.1284, "RA_OF_ASC_NODE": 28.4706, "ARG_OF_PERICENTER": 227.9548, "MEAN_ANOMALY": 131.5118, "EPHEMERIS_TYPE": 0, "CLASSIFICATION_TYPE": "U", "NORAD_CAT_ID": 38163, "ELEMENT_SET_NO": 999, "REV_AT_EPOCH": 24614, "BSTAR": 0.00076796978, "MEAN_MOTION_DOT": 1.245e-05, "MEAN_MOTION_DDOT": 0}, "tle": {"line1": "1 38163U 99025ERL 25351.90192900  .00001245  00000+0  76797-3 0  9992", "line2": "2 38163  99.1284  28.4706 0076200 227.9548 131.5118 14.05928635246145"}}, "geometry": {"type": "Point", "coordinates": [30.384495431390388, -5.649392945132074]}}, {"type": "Feature", "properties": {"norad_id": 38166, "name": "FENGYUN 1C DEB", "group": "fengyun-1c-debris", "lat": 67.16578506058576, "lon": 73.93064804187676, "alt_km": 754.3310152081986, "timestamp": "2025-12-18T21:31:51.291363+00:00", "meta": {"OBJECT_NAME": "FENGYUN 1C DEB", "OBJECT_ID": "1999-025ERP", "EPOCH": "2025-12-18T06:06:37.368288", "MEAN_MOTION": 14.31016389, "ECCENTRICITY": 0.00519289, "INCLINATION": 99.0782, "RA_OF_ASC_NODE": 95.5762, "ARG_OF_PERICENTER": 28.0617, "MEAN_ANOMALY": 332.3346, "EPHEMERIS_TYPE": 0, "CLASSIFICATION_TYPE": "U", "NORAD_CAT_ID": 38166, "ELEMENT_SET_NO": 999, "REV_AT_EPOCH": 63851, "BSTAR": 0.0021062035, "MEAN_MOTION_DOT": 5.582e-05, "MEAN_MOTION_DDOT": 0}, "tle": {"line1": "1 38166U 99025ERP 25352.25459917  .00005582  00000+0  21062-2 0  9990", "line2": "2 38166  99.0782  95.5762 0051928  28.0617 332.3346 14.31016389638517"}}, "geometry": {"type": "Point", "coordinates": [73.93064804187676, 67.16578506058576]}}]}